address1	address2	zipCode	city	country	geoCoords
8 Rue Arago			Villeurbanne		45.75697610,4.88385780
5 Rue Léon Fabre			Villeurbanne		45.77902970,4.87336720
12 Rue de la Prevoyance			Villeurbanne		45.77213430,4.88753270
4 Rue Phelypeaux			Villeurbanne		45.77741770,4.86447750
8 Rue Wilhelmine			Villeurbanne		45.78181650,4.88124090
6 Rue Camille Koechlin			Villeurbanne		45.76288930,4.88778260
9 Impasse Guillet			Villeurbanne		45.78318470,4.88655430
20 Rue Decomberousse			Villeurbanne		45.76072750,4.92008090
1 Rue d'Alsace			Villeurbanne		45.77159430,4.87008540
4 Rue de la Jeunesse			Villeurbanne		45.77404130,4.89742650
7 Rue de la Cloche			Villeurbanne		45.78821340,4.88554910
4 Rue Marcel Doret			Villeurbanne		45.75475310,4.91194230
16 Rue Jules Kumer			Villeurbanne		45.76656800,4.89058110
4 Rue du Luxembourg			Villeurbanne		45.75069030,4.91467480
1 Rue Denis Papin			Villeurbanne		45.77045970,4.89165330
8 Rue Leo Lagrange			Villeurbanne		45.78463370,4.90336550
18 Rue Baudelaire			Villeurbanne		45.76268760,4.87943030
6 Rue du Perou			Villeurbanne		45.77699640,4.87789560
3 Rue Leo Lagrange			Villeurbanne		45.78496530,4.90288860
3 Rue des 2 Frères			Villeurbanne		45.75620040,4.88676230
4 Avenue de la Rize			Villeurbanne		45.76927350,4.90963410
1 Avenue Jean Capelle			Villeurbanne		45.78159890,4.87394050
16 Rue du Docteur Rollet			Villeurbanne		45.76781760,4.88427300
15 Impasse Comby			Villeurbanne		45.77309960,4.88608640
1 Rue Alexandre Dumas			Villeurbanne		45.77625990,4.88807040
18 Rue du Professeur Calmette			Villeurbanne		45.77242000,4.89744180
16 Allée Henri Georges Clouzot			Villeurbanne		45.77628600,4.86132630
10 Rue Eugene Fourniere			Villeurbanne		45.75776340,4.88684350
4 Rue Jean Novel			Villeurbanne		45.77196880,4.86034080
5 Impasse Bayet			Villeurbanne		45.76170840,4.89870600
14 Rue du Luizet			Villeurbanne		45.78307470,4.88462130
1 Place du Commandant Rivière			Villeurbanne		45.77635800,4.86188020
9 Rue Burais			Villeurbanne		45.75936890,4.89178250
14 Rue de la Sainte Famille			Villeurbanne		45.77383460,4.88015610
6 Rue Lafontaine			Villeurbanne		45.76129090,4.87577860
15 Avenue Roberto Rossellini			Villeurbanne		45.77669120,4.86254020
19 Avenue Paul Kruger			Villeurbanne		45.75580320,4.89369830
15 Place de Croix Luizet			Villeurbanne		45.78059220,4.88294360
8 Avenue Jean Capelle			Villeurbanne		45.78141550,4.87310390
11 Rue Mansard			Villeurbanne		45.76890410,4.87307910
5 Avenue Henri Barbusse			Villeurbanne		45.76927970,4.87944200
4 Rue Yvonne Chanu			Villeurbanne		45.75378610,4.90841140
5 Rue Jean Baptiste Durand			Villeurbanne		45.75493540,4.90416760
3 Rue Octavie			Villeurbanne		45.78158060,4.88774570
17 Rue Pierre Baratin			Villeurbanne		45.76478010,4.90132430
5 Impasse Martin			Villeurbanne		45.76280190,4.89467870
10 Impasse Bayet			Villeurbanne		45.76149260,4.89868540
16 Rue Sylvestre			Villeurbanne		45.76895780,4.86621220
17 Rue du Luxembourg			Villeurbanne		45.74949520,4.91441220
3 Rue de la Boube			Villeurbanne		45.78127100,4.89223560
6 Avenue Salvador Allende			Villeurbanne		45.77593740,4.86276860
5 Rue Georges Courteline			Villeurbanne		45.77819940,4.87680760
4 Rue du 14 Juillet 1789			Villeurbanne		45.76261740,4.87180010
14 Rue du 4 Septembre 1797			Villeurbanne		45.76166750,4.87140430
8 Impasse des Moineaux			Villeurbanne		45.78232030,4.89774170
20 Rue des Peupliers			Villeurbanne		45.76046340,4.88807860
10 Rue Baudelaire			Villeurbanne		45.76350070,4.87906230
13 Rue George Sand			Villeurbanne		45.75490330,4.88621650
16 Boulevard Niels Bohr			Villeurbanne		45.78521980,4.87233920
7 Rue Ernest Renan			Villeurbanne		45.76584900,4.90237000
7 Rue Pelisson			Villeurbanne		45.77377590,4.88535770
8 Rue Charles Montaland			Villeurbanne		45.76417840,4.88164090
9 Boulevard de la Bataille de Stalingrad			Villeurbanne		45.78323620,4.85998800
9 Rue Branly			Villeurbanne		45.76950390,4.88146380
1 Rue Eugene Fourniere			Villeurbanne		45.75845220,4.88702570
4 Allée Henri Georges Clouzot			Villeurbanne		45.77599750,4.86126960
2 Allée Louis Pergaud			Villeurbanne		45.75279400,4.91480400
15 Rue Berthelot			Villeurbanne		45.75870430,4.89729540
18 Rue Louis Teillon			Villeurbanne		45.75071840,4.91601870
17 Rue du Dr Pierre Fleury Papillon			Villeurbanne		45.76347420,4.88335940
12 Rue Léon Piat			Villeurbanne		45.77320930,4.90284500
3 Allée Louis Pergaud			Villeurbanne		45.75280790,4.91435810
14 Rue Lafontaine			Villeurbanne		45.76128010,4.87581590
8 Avenue Roger Salengro			Villeurbanne		45.77440480,4.86871180
18 Impasse Chevreul			Villeurbanne		45.76461060,4.90000810
6 Rue des Muriers			Villeurbanne		45.76251340,4.88121220
2 Rue Leo Lagrange			Villeurbanne		45.78479550,4.90260030
16 Rue René Prolongee			Villeurbanne		45.77850580,4.89348610
2 Rue Frédéric Fays			Villeurbanne		45.76473690,4.90266430
18 Rue Paret			Villeurbanne		45.77417030,4.88657040
11 Rue Bernard Lecache			Villeurbanne		45.76488430,4.91104220
15 Rue Frédéric Fays			Villeurbanne		45.76381890,4.90465160
12 Rue Bonnet			Villeurbanne		45.77725930,4.86959370
8 Avenue Piaton			Villeurbanne		45.77400290,4.86657960
18 Rue du Cimetière			Villeurbanne		45.76494840,4.91146000
5 Rue Max Linder			Villeurbanne		
20 Rue Montgolfier			Villeurbanne		45.77417150,4.89011050
18 Rue Charles Montaland			Villeurbanne		45.76356250,4.88175670
9 Rue Jean Voillot			Villeurbanne		45.75515420,4.91008860
14 Rue Berthelot			Villeurbanne		45.75885970,4.89693380
13 Rue Mauvert			Villeurbanne		45.77404220,4.87764550
7 Impasse du Boucheret			Villeurbanne		45.76731730,4.89602160
11 Rue Pierre Larousse			Villeurbanne		45.77265670,4.86833900
13 Place Jules Grandclement			Villeurbanne		45.75850260,4.88593120
9 Place de la Paix			Villeurbanne		45.75221130,4.91439590
7 Rue Bonnet			Villeurbanne		45.77776110,4.87055670
11 Rue Marguerite			Villeurbanne		45.77822020,4.87048060
3 Impasse François Chanteur			Villeurbanne		45.77823970,4.88722850
9 Impasse des Antonins			Villeurbanne		45.78192920,4.87857240
6 Rue de l'Union			Villeurbanne		45.76598390,4.89105560
6 Place Albert Thomas			Villeurbanne		45.79202960,4.83937890
17 Rue de Fontanieres			Villeurbanne		45.77678510,4.88316910
1 Rue Pierre Cacard			Villeurbanne		45.76628360,4.89325440
10 Rue des Fleurs			Villeurbanne		45.75458910,4.89480420
18 Rue de la Fraternite			Villeurbanne		45.75457030,4.88663480
3 Petite Rue de la Rize			Villeurbanne		45.76001830,4.88583180
17 Rue de Bruxelles			Villeurbanne		45.77750650,4.86888170
9 Place Paul Strauss			Villeurbanne		45.77584070,4.89397670
5 Impasse Martin			Villeurbanne		45.76280190,4.89467870
9 Rue des Acacias			Villeurbanne		45.78120930,4.90436300
18 Rue Louis Guerin			Villeurbanne		45.77845710,4.86041140
9 Rue Château Gaillard			Villeurbanne		45.77569260,4.88661060
8 Rue de la Convention			Villeurbanne		45.76333150,4.87138910
1 Rue Hippolyte Kahn			Villeurbanne		45.77174380,4.87526920
2 Rue Marcel Dutartre			Villeurbanne		45.77969310,4.87574110
14 Rue Jean Claude Vivant			Villeurbanne		45.77001810,4.86807400
14 Rue de l'Union			Villeurbanne		45.76598390,4.89105560
3 Allée Athena			Villeurbanne		45.77768260,4.86351170
12 Avenue du Commandant l'Herminier			Villeurbanne		45.76988060,4.88460580
12 Rue Joseph Gillet			Villeurbanne		45.77297700,4.88653250
19 Avenue Marcel Cerdan			Villeurbanne		45.76730500,4.90638860
14 Rue Mansard			Villeurbanne		45.76911460,4.87246960
15 Rue Philippe Verzier			Villeurbanne		45.77386150,4.87668020
16 Rue du Foyer			Villeurbanne		45.77445130,4.88029340
11 Rue Louis Braille			Villeurbanne		45.76041890,4.88228310
15 Rue Alfred Brinon			Villeurbanne		45.77677410,4.89515810
19 Rue Louis Goux			Villeurbanne		45.76588800,4.89185180
15 Impasse Amblard			Villeurbanne		45.75450120,4.88805290
12 Rue Léon Blum			Villeurbanne		45.75955720,4.89183600
1 Rue Lancon			Villeurbanne		45.77119540,4.89146110
17 Rue Jean Ottavi			Villeurbanne		45.77338760,4.87347430
19 Rue Edison			Villeurbanne		45.75503820,4.91845370
17 Rue Dedieu			Villeurbanne		45.76945290,4.86441400
16 Rue Émile Duniere			Villeurbanne		45.77964450,4.88476650
16 Rue Paul Gojon			Villeurbanne		45.77126770,4.89979370
2 Rue de l'Espoir			Villeurbanne		45.78106550,4.88282310
14 Rue de Verdun			Villeurbanne		45.78416970,4.89716230
7 Rue Léon Fabre			Villeurbanne		45.77902970,4.87336720
18 Cours Docteur Jean Damidot			Villeurbanne		45.76182050,4.88480330
14 Rue Colin			Villeurbanne		45.77548590,4.87386440
1 Impasse Metral			Villeurbanne		45.77181510,4.87106240
15 Rue Clos Poncet			Villeurbanne		45.76266980,4.87553450
11 Rue Sully Prudhomme			Villeurbanne		45.76627650,4.87875010
9 Impasse des Glycines			Villeurbanne		45.76498210,4.89437610
16 Allée Marcel Doret			Villeurbanne		45.75509340,4.91207600
3 Rue Edison			Villeurbanne		45.75505640,4.91702920
8 Rue Jean Zuber			Villeurbanne		45.77543870,4.89763160
8 Rue Berthelot			Villeurbanne		45.75896310,4.89665300
12 Rue Clement Michut			Villeurbanne		45.76779590,4.88146100
14 Rue Valentin Hauy			Villeurbanne		45.75937700,4.88351030
11 Rue Lakanal			Villeurbanne		45.77567000,4.86622270
14 Rue Chambfort			Villeurbanne		45.76696670,4.90222150
1 Avenue Salvador Allende			Villeurbanne		45.77649530,4.86271010
18 Rue Richelieu			Villeurbanne		45.76093700,4.87780100
3 Impasse des Glycines			Villeurbanne		45.76565320,4.89445840
19 Rue Louis Becker			Villeurbanne		45.76533230,4.86906620
20 Avenue Monin			Villeurbanne		45.78781010,4.88401740
10 Rue Etienne Gagnaire			Villeurbanne		45.77257490,4.86578340
5 Avenue de Bel Air			Villeurbanne		45.75704590,4.91164700
8 Rue Hippolyte Kahn			Villeurbanne		45.77153170,4.87517520
20 Rue des Roses			Villeurbanne		45.75450160,4.90658720
14 Rue Philippe Verzier			Villeurbanne		45.77395290,4.87611620
12 Rue Jean Bertin			Villeurbanne		45.76032160,4.91962850
20 Rue Jean Jaurès			Villeurbanne		45.75627760,4.87952260
16 Avenue Antoine Dutrievoz			Villeurbanne		45.77171950,4.86156430
16 Rue Tranquille			Villeurbanne		45.78454080,4.89841930
15 Rue du Caporal Morange			Villeurbanne		45.75222940,4.91733680
8 Place Wilson			Villeurbanne		45.77330790,4.86826850
16 Rue de la Prairie			Villeurbanne		45.78282700,4.89961740
16 Rue Jean Ottavi			Villeurbanne		45.77309730,4.87349370
18 Allée des Enfants			Villeurbanne		45.77045750,4.89768770
16 Rue Pascal			Villeurbanne		45.76038970,4.87465150
20 Rue du Roulet			Villeurbanne		45.78624240,4.89641070
4 Rue Louis Adam			Villeurbanne		45.76940980,4.87158660
4 Rue Monge			Villeurbanne		45.75299850,4.90887120
3 Rue Mansard			Villeurbanne		45.76930140,4.87274240
3 Rue Roger Lenoir			Villeurbanne		45.76952880,4.88926170
12 Rue du Boulevard			Villeurbanne		45.77786050,4.86853030
5 Rue des Brosses			Villeurbanne		45.75135390,4.90852690
4 Rue Roger Lenoir			Villeurbanne		45.76867860,4.88888990
16 Rue Jean Ottavi			Villeurbanne		45.77309730,4.87349370
3 Rue Francis de Pressense			Villeurbanne		45.77296240,4.86665110
6 Rue Leo Lagrange			Villeurbanne		45.78461350,4.90318990
8 Place de Croix Luizet			Villeurbanne		45.78059220,4.88294360
12 Rue du Tonkin			Villeurbanne		45.77789690,4.86508010
12 Impasse des Lilas			Villeurbanne		45.76892610,4.89071980
20 Rue de Venise			Villeurbanne		45.76688140,4.89978330
3 Rue Baudin			Villeurbanne		45.76495190,4.90566660
3 Rue Sylvestre			Villeurbanne		45.76915120,4.86673230
13 Rue d'Alsace			Villeurbanne		45.76984240,4.86997860
10 Rue Jean Pierre Bredy			Villeurbanne		45.78266950,4.88629180
15 Rue Louis Malle			Villeurbanne		45.77351800,4.85991940
2 Rue Andree Brevet			Villeurbanne		45.75664990,4.88890990
9 Rue Burais			Villeurbanne		45.75936890,4.89178250
10 Petite Rue de la Rize			Villeurbanne		45.76004680,4.88589610
12 Rue des Fleurs			Villeurbanne		45.75454360,4.89488050
3 Rue Andree Brevet			Villeurbanne		45.75662830,4.88907330
19 Impasse Brive			Villeurbanne		45.76171830,4.90149060
1 Place des Passementiers			Villeurbanne		45.76959650,4.86599110
2 Rue Francis Chirat			Villeurbanne		45.75896760,4.88903130
12 Rue Son Tay			Villeurbanne		45.77312690,4.86446370
6 Impasse des Glycines			Villeurbanne		45.76556620,4.89426830
5 Rue Louis Maynard			Villeurbanne		45.78678350,4.90033730
1 Rue des Charmettes			Villeurbanne		45.77207310,4.86614250
3 Rue Yvonne			Villeurbanne		45.75392760,4.90882200
7 Allée Marcel Doret			Villeurbanne		45.75488250,4.91181630
1 Rue Châteaubriand			Villeurbanne		45.78095830,4.88075540
4 Rue Camille Koechlin			Villeurbanne		45.76272470,4.88776800
8 Allée du Couchant			Villeurbanne		45.75970400,4.87817420
9 ?Petite Rue de la Poudrette			Villeurbanne		45.76366110,4.91852420
2 Rue Raspail			Villeurbanne		45.77322070,4.87989920
3 Rue de la Solidarite			Villeurbanne		45.75485450,4.88918170
7 Rue Louis Teillon			Villeurbanne		45.75079230,4.91571350
2 Rue Jules Siegfried			Villeurbanne		45.77468100,4.89580360
1 Rue Montgolfier			Villeurbanne		45.77457240,4.89045150
11 Rue de la Soie			Villeurbanne		45.76262660,4.91628980
18 Rue de la Marne			Villeurbanne		45.75282750,4.90585230
3 Rue du Roulet			Villeurbanne		45.78691830,4.89677880
13 Avenue de Bel Air			Villeurbanne		45.75642140,4.91235420
20 Rue Bergonier			Villeurbanne		45.76478520,4.89846880
14 Rue Jules Siegfried			Villeurbanne		45.77377380,4.89605610
4 Rue Léon Blum			Villeurbanne		45.75941870,4.89123660
3 Rue Richelieu			Villeurbanne		45.76223840,4.87864770
10 Rue Richelieu			Villeurbanne		45.76168930,4.87791890
15 Allée des Enfants			Villeurbanne		45.77046440,4.89727940
2 Rue Flachet			Villeurbanne		45.77161450,4.88995220
8 Rue Camille Koechlin			Villeurbanne		45.76306470,4.88779630
20 Allée Marcel Doret			Villeurbanne		45.75509340,4.91207600
17 Place des Maisons Neuves			Villeurbanne		45.75636750,4.87727320
14 Rue Léon Chomel			Villeurbanne		45.77076880,4.87929180
2 Boulevard Laurent Bonnevay			Villeurbanne		45.78715790,4.88714690
2 Allée Henri Georges Clouzot			Villeurbanne		45.77614730,4.86155390
13 Rue du Champ de l'Orme			Villeurbanne		45.77208430,4.89142990
16 Rue Montgolfier			Villeurbanne		45.77443720,4.88978080
13 Rue Pierre Louis Bernaix			Villeurbanne		45.76023050,4.89696490
11 Rue Baudelaire			Villeurbanne		45.76287570,4.87962580
9 Rue Leo Lagrange			Villeurbanne		45.78499000,4.90364570
4 Rue de l'Amitie			Villeurbanne		45.76477060,4.88382800
20 Boulevard du 11 Novembre 1918			Villeurbanne		45.77914540,4.86160880
17 Avenue Salvador Allende			Villeurbanne		45.77501060,4.86510480
12 Place des Maisons Neuves			Villeurbanne		45.75529220,4.87613660
9 Rue Basile			Villeurbanne		45.77922100,4.88259900
18 Impasse Brive			Villeurbanne		45.76171820,4.90149060
17 Rue Léon Chomel			Villeurbanne		45.77059670,4.87965100
14 Rue Émile Decorps			Villeurbanne		45.75875950,4.89963310
6 Rue de l'Avenir			Villeurbanne		45.75530860,4.90743250
8 Rue Dedieu			Villeurbanne		45.76929280,4.86364250
20 Rue Hector Berlioz			Villeurbanne		45.77221260,4.86832450
5 Rue de l'Amitie			Villeurbanne		45.75531410,4.89000770
4 Rue Jules Valles			Villeurbanne		45.76993910,4.86363290
16 Allée Henri Georges Clouzot			Villeurbanne		45.77628600,4.86132630
12 Rue Wilhelmine			Villeurbanne		45.78177770,4.88121200
19 Rue Andree Brevet			Villeurbanne		45.75662830,4.88907330
12 Rue Pierre Joseph Proudhon			Villeurbanne		45.77370500,4.88974560
15 Rue Charny			Villeurbanne		45.75515060,4.89051250
6 Rue des Pres			Villeurbanne		45.78174540,4.89616020
14 Rue Abbe A Firmin			Villeurbanne		45.78401100,4.89862800
8 Rue Eugene Manuel			Villeurbanne		45.77148300,4.86924810
18 Rue Gervais Bussiere			Villeurbanne		45.77428390,4.86971620
13 Rue George Sand			Villeurbanne		45.75490330,4.88621650
19 Rue Louis Becker			Villeurbanne		45.76533230,4.86906620
17 Allée de la Cote			Villeurbanne		45.76119120,4.89820810
17 Rue Camille Koechlin			Villeurbanne		45.76369740,4.88724120
16 Rue Alexandre Boutin			Villeurbanne		45.76997970,4.86866310
12 Rue Louis Ducroize			Villeurbanne		45.75900320,4.89511330
11 Petite Rue de la Viabert			Villeurbanne		45.76686970,4.86377900
13 Impasse Henri			Villeurbanne		45.78304810,4.88815230
11 Rue Mozart			Villeurbanne		45.77515210,4.86688410
16 Rue Monge			Villeurbanne		45.75238580,4.90919180
3 Petite Rue de la Viabert			Villeurbanne		45.76686970,4.86377900
7 Place du Chanoine Boursier			Villeurbanne		45.76881680,4.87865810
3 Rue Colonel Klobb			Villeurbanne		45.77467390,4.88090250
11 Rue Bernard Lecache			Villeurbanne		45.76488430,4.91104220
6 Rue François Gillet			Villeurbanne		45.75977350,4.87286590
12 Rue Philippe Verzier			Villeurbanne		45.77408170,4.87625790
15 Rue Charlie Chaplin			Villeurbanne		45.77479010,4.86042490
12 Rue Viret			Villeurbanne		45.77383660,4.87546020
4 Rue Henri Legay			Villeurbanne		45.75798010,4.91657630
19 Rue Jean Claude Vivant			Villeurbanne		45.76981660,4.86839060
11 Rue Baudelaire			Villeurbanne		45.76287570,4.87962580
17 Avenue du Général Leclerc			Villeurbanne		45.75840790,4.89094930
14 Rue de la Serenite			Villeurbanne		45.76990900,4.89758340
12 Rue Bourgchanin			Villeurbanne		45.76435380,4.90270920
8 Rue Octavie			Villeurbanne		45.78127200,4.88736600
2 Rue de la Ligne de l'Est			Villeurbanne		45.75720500,4.90220980
15 Rue Pierre Loti			Villeurbanne		45.76852200,4.88722500
9 Rue Son Tay			Villeurbanne		45.77308130,4.86508140
6 Place du Commandant Rivière			Villeurbanne		45.77635960,4.86185360
8 Rue de Lorraine			Villeurbanne		45.76459140,4.87070020
19 Rue du Foyer			Villeurbanne		45.77474780,4.88002420
1 Rue Geoffray			Villeurbanne		45.77393610,4.88062190
6 Rue Baudin			Villeurbanne		45.76626960,4.90477190
13 Rue Frédéric Passy			Villeurbanne		45.76059840,4.87628520
17 Allée des Cèdres			Villeurbanne		45.75530430,4.91141090
14 Cours André Philip			Villeurbanne		45.77264100,4.85900320
6 Impasse Alexandre Dumas			Villeurbanne		45.77596310,4.88925300
8 Rue Paul Lafargue			Villeurbanne		45.76825100,4.88340380
7 Rue Anatole France			Villeurbanne		45.76655160,4.86837690
10 Rue Florian			Villeurbanne		45.76080130,4.88068210
5 Impasse Buyet			Villeurbanne		45.75632560,4.90350920
7 Rue Alexandre Ribot			Villeurbanne		45.77505740,4.89420940
3 Rue Mauvert			Villeurbanne		45.77465660,4.87780870
9 Rue Louis Malle			Villeurbanne		45.77350100,4.85991700
1 Rue Tranquille			Villeurbanne		45.78482660,4.89761870
15 Rue des 2 Frères			Villeurbanne		45.75562840,4.88679410
11 Avenue Auguste Blanqui			Villeurbanne		45.76337830,4.88502480
19 Rue Louise Michel			Villeurbanne		45.77446710,4.89528880
7 Rue des 2 Frères			Villeurbanne		45.75577970,4.88668780
11 Rue Alfred de Musset			Villeurbanne		45.75731150,4.91661870
15 Rue Basile			Villeurbanne		45.77922100,4.88259900
1 Boulevard de la Bataille de Stalingrad			Villeurbanne		45.78416130,4.86028930
4 Rue Louis Goux			Villeurbanne		45.76688660,4.89154790
2 Rue Victor Hugo			Villeurbanne		45.75673900,4.88021850
3 Impasse des Soeurs			Villeurbanne		45.77954130,4.88942700
20 Rue de Venise			Villeurbanne		45.76688140,4.89978330
16 Rue Bat Yam			Villeurbanne		45.77318530,4.86429110
7 Rue Charles Perrault			Villeurbanne		45.77106260,4.89056420
6 Rue de la Solidarite			Villeurbanne		45.75504340,4.88897070
18 Impasse Édouard Aynard			Villeurbanne		45.76106280,4.87628000
20 Avenue Monin			Villeurbanne		45.78781010,4.88401740
10 Rue de la Cloche			Villeurbanne		45.78828480,4.88554110
8 Rue Henri Balay			Villeurbanne		45.77259580,4.88850880
20 Avenue Aristide Briand			Villeurbanne		45.76678730,4.87980340
4 Rue Marteret			Villeurbanne		45.77770720,4.87204760
14 Impasse Édouard Aynard			Villeurbanne		45.76142910,4.87622400
15 Rue de Milan			Villeurbanne		45.77387620,4.86923890
2 Rue Francis Chirat			Villeurbanne		45.75896760,4.88903130
7 Rue Château Gaillard			Villeurbanne		45.77548160,4.88676230
9 Rue Louis Malle			Villeurbanne		45.77350100,4.85991700
10 Rue du Maréchal Foch			Villeurbanne		45.75371030,4.90495770
11 Rue Michel Servet			Villeurbanne		45.76878950,4.87891330
6 Rue Raspail			Villeurbanne		45.77323230,4.88003110
7 Impasse Édouard Aynard			Villeurbanne		45.75868190,4.87444110
2 Impasse des Bienvenus			Villeurbanne		45.77125510,4.88571990
6 Rue Basile			Villeurbanne		45.77925290,4.88278580
10 Place des Passementiers			Villeurbanne		45.76949350,4.86577010
12 Rue de Milan			Villeurbanne		45.77360680,4.86958130
2 Rue de la Fraternite			Villeurbanne		45.75464750,4.88662220
3 Rue Pierre Louis Bernaix			Villeurbanne		45.76079810,4.89689180
19 Rue Severine			Villeurbanne		45.75433080,4.91346690
9 Rue de la Prevoyance			Villeurbanne		45.77211080,4.88779500
16 Rue des Acacias			Villeurbanne		45.78173130,4.90448100
6 Impasse Alexandre Dumas			Villeurbanne		45.77596310,4.88925300
7 Rue de Lorraine			Villeurbanne		45.76440900,4.87092270
12 Impasse Chatigny			Villeurbanne		45.77571100,4.87482530
17 Rue du Caporal Morange			Villeurbanne		45.75221810,4.91743930
9 Rue Jean Pierre Bredy			Villeurbanne		45.78210270,4.88606530
17 Rue Jean Baptiste Durand			Villeurbanne		45.75450260,4.90431700
17 Impasse des Iris			Villeurbanne		45.76812830,4.89659890
14 Allée du Levant			Villeurbanne		45.75955250,4.87944780
15 Impasse Édouard Aynard			Villeurbanne		45.76079630,4.87680010
14 Rue de la Somme			Villeurbanne		45.75242820,4.90671380
14 Rue Charles Montaland			Villeurbanne		45.76386680,4.88134050
15 Rue du Professeur Calmette			Villeurbanne		45.77292160,4.89725220
11 Allée des Cèdres			Villeurbanne		45.75588570,4.91112780
5 Boulevard Eugene Reguillon			Villeurbanne		45.75976460,4.89086710
3 Rue du Luizet			Villeurbanne		45.78363370,4.88451400
14 Rue Lucette Et René Desgrand			Villeurbanne		45.78540000,4.89856230
2 Cours de la République			Villeurbanne		45.77155690,4.87346320
15 Rue Eugene Fourniere			Villeurbanne		45.75765410,4.88711810
19 Allée de l'Enfance			Villeurbanne		45.76005280,4.87900900
4 Rue Mauvert			Villeurbanne		45.77462590,4.87751510
3 Rue de la Fraternite			Villeurbanne		45.75478890,4.88681620
14 Rue Joseph Gillet			Villeurbanne		45.77300210,4.88656520
17 Rue Anatole France			Villeurbanne		45.76685170,4.86925830
13 Rue Jean Novel			Villeurbanne		45.77208680,4.86140300
6 Rue de Verdun			Villeurbanne		45.78416970,4.89716230
14 Rue Yvonne			Villeurbanne		45.77565790,4.87655920
9 Rue Delornage			Villeurbanne		45.77030830,4.86788200
19 Avenue Aristide Briand			Villeurbanne		45.76679790,4.88025620
6 Place du Chanoine Boursier			Villeurbanne		45.76881170,4.87837580
7 Avenue Paul Kruger			Villeurbanne		45.75580320,4.89369830
10 Rue Roger Lenoir			Villeurbanne		45.76867860,4.88888990
3 Rue Wilhelmine			Villeurbanne		45.78197300,4.88157180
9 Rue de la Poudrette			Villeurbanne		45.76346880,4.92007880
18 Rue du 14 Juillet 1789			Villeurbanne		45.76254030,4.87159220
12 Rue Louis Mille			Villeurbanne		45.76653160,4.88496000
18 Rue Chambfort			Villeurbanne		45.76696670,4.90222150
17 Rue Bat Yam			Villeurbanne		45.77294360,4.86469030
16 Rue Alfred de Musset			Villeurbanne		45.75798520,4.92343640
6 Rue des Bienvenus			Villeurbanne		45.77798480,4.88377940
10 Rue Raoul Durand			Villeurbanne		45.76684980,4.88503550
4 Rue de la Prevoyance			Villeurbanne		45.77264630,4.88745110
6 Rue Leo Lagrange			Villeurbanne		45.78461350,4.90318990
9 Impasse Bayet			Villeurbanne		45.76147000,4.89876930
6 Rue du Tonkin			Villeurbanne		45.77839610,4.86483130
18 Rue d'Inkermann			Villeurbanne		45.76883740,4.86578140
6 Rue Jules Guesde			Villeurbanne		45.75528930,4.90317070
2 Rue de l'Égalité			Villeurbanne		45.76421770,4.90431260
15 Rue Charles Robin			Villeurbanne		45.76442250,4.89786300
3 Rue Clement Michut			Villeurbanne		45.76831330,4.88171590
5 Rue Roger Lenoir			Villeurbanne		45.76932150,4.88909290
13 Rue Valentin Hauy			Villeurbanne		45.75930320,4.88490650
11 Rue Yvonne			Villeurbanne		45.75421170,4.90912130
4 Rue Georges Picot			Villeurbanne		45.77577180,4.89699460
1 Rue Paul Cambon			Villeurbanne		45.77636620,4.87304120
2 Rue Max Linder			Villeurbanne		
12 Rue des Acacias			Villeurbanne		45.78138030,4.90465040
16 Rue Lancon			Villeurbanne		45.77110050,4.89330840
6 Rue Clement Michut			Villeurbanne		45.76811490,4.88150920
2 Rue Camille Koechlin			Villeurbanne		45.76191330,4.88762000
16 Rue de la Prevoyance			Villeurbanne		45.77186950,4.88733710
8 Rue de la Marne			Villeurbanne		45.75354550,4.90573380
12 Rue du Pont des Planches			Villeurbanne		45.77027130,4.90768590
10 Rue de Venise			Villeurbanne		45.76677340,4.89872340
13 Rue Yvonne Chanu			Villeurbanne		45.75413740,4.90885900
17 Petite Rue de la Viabert			Villeurbanne		45.76783650,4.86515380
8 Rue John Ford			Villeurbanne		45.77844250,4.86088680
16 Rue de la Ligne de l'Est			Villeurbanne		45.75786810,4.90700240
8 Avenue Antoine de Saint Exupery			Villeurbanne		45.75929730,4.87655330
14 Rue Armand			Villeurbanne		45.77859560,4.88520720
1 Impasse Amblard			Villeurbanne		45.75527140,4.88784190
13 Rue du Progres			Villeurbanne		45.76415810,4.89394150
6 Rue de la Ligne de l'Est			Villeurbanne		45.75730160,4.90298790
20 Rue Joseph Gillet			Villeurbanne		45.77300210,4.88656520
17 Rue de la Baisse			Villeurbanne		45.76251630,4.89383820
4 Rue du Vert Buisson			Villeurbanne		45.78401170,4.90140670
20 Rue Alexandre Dumas			Villeurbanne		45.77642720,4.88995210
8 Rue des Bluets			Villeurbanne		45.78132410,4.89661470
20 Rue du Roulet			Villeurbanne		45.78624240,4.89641070
3 Rue Michel Servet			Villeurbanne		45.76935320,4.87899170
3 Impasse Bayet			Villeurbanne		45.76123050,4.89858110
14 Allée de l'Enfance			Villeurbanne		45.76001300,4.87876210
19 Rue de la Poste			Villeurbanne		45.75740930,4.88794260
9 Rue Léon Fabre			Villeurbanne		45.77861510,4.87507740
15 Rue John Ford			Villeurbanne		45.77862230,4.86129550
14 Rue de France			Villeurbanne		45.76720270,4.88736040
16 Rue de la Cooperative			Villeurbanne		45.77084870,4.89777120
11 Rue Decomberousse			Villeurbanne		45.76230190,4.91486490
1 Rue Jean Pierre Bredy			Villeurbanne		45.78157400,4.88607020
17 Rue Victor Basch			Villeurbanne		45.76403470,4.89693310
8 Rue Marcel Doret			Villeurbanne		45.75453010,4.91181610
7 Avenue Gaston Berger			Villeurbanne		45.78442240,4.87029910
18 Rue Alexandre Boutin			Villeurbanne		45.76965690,4.86874720
14 Avenue Ampère			Villeurbanne		45.76473170,4.91597290
8 Rue Denis Papin			Villeurbanne		45.77025500,4.89134930
17 Impasse Richard			Villeurbanne		45.77513050,4.88563550
11 Rue Louis Teillon			Villeurbanne		45.75075770,4.91653720
3 Place des Passementiers			Villeurbanne		45.76959650,4.86599110
4 Rue Édouard Aynard			Villeurbanne		45.76200570,4.87678760
15 Rue Bonnet			Villeurbanne		45.77693290,4.86986520
13 Rue Eugene Fourniere			Villeurbanne		45.75770580,4.88711720
4 Rue Léon Piat			Villeurbanne		45.77410180,4.90311530
5 Rue d'Hanoi			Villeurbanne		45.77151640,4.86221140
13 Rue Pelisson			Villeurbanne		45.77378200,4.88598390
2 Rue des Bluets			Villeurbanne		45.78111090,4.89608840
14 Rue Billon			Villeurbanne		45.77389220,4.87883060
8 Rue Pierre Larousse			Villeurbanne		45.77277880,4.86809510
12 Rue Léon Fabre			Villeurbanne		45.77858060,4.87396050
10 Rue du Nord			Villeurbanne		45.76372080,4.88168640
18 Rue de la Filature			Villeurbanne		45.77731710,4.88066060
4 Boulevard Niels Bohr			Villeurbanne		45.78676870,4.87934260
5 Rue du Caporal Morange			Villeurbanne		45.75219670,4.91584020
11 Impasse des Glycines			Villeurbanne		45.76498210,4.89437610
18 Rue Charles Gounod			Villeurbanne		45.77521220,4.88167660
7 Rue Pierre Cacard			Villeurbanne		45.76626850,4.89308670
2 Rue de la Cloche			Villeurbanne		45.78814190,4.88555710
4 Impasse Henri			Villeurbanne		45.78342990,4.88805210
11 Rue Edison			Villeurbanne		45.75524470,4.91850160
5 Rue du Capitaine Ferber			Villeurbanne		45.78859700,4.88389150
5 Rue du Docteur Rollet			Villeurbanne		45.76816740,4.88456450
7 Rue Alexandre Ribot			Villeurbanne		45.77505740,4.89420940
16 Boulevard de la Bataille de Stalingrad			Villeurbanne		45.78323620,4.85998800
17 Rue Marie Antoinette			Villeurbanne		45.78312900,4.88720080
17 Rue Branly			Villeurbanne		45.76917130,4.88141060
5 Impasse Comby			Villeurbanne		45.77309960,4.88608640
10 Allée des Enfants			Villeurbanne		45.77045750,4.89768770
20 Rue Paul Gojon			Villeurbanne		45.77146800,4.90017450
18 Rue Pierre Cacard			Villeurbanne		45.76593090,4.89295860
9 Boulevard Niels Bohr			Villeurbanne		45.78521980,4.87233920
2 Allée du Parc du Centre			Villeurbanne		45.77325300,4.87964630
14 Impasse Amblard			Villeurbanne		45.75436340,4.88788720
17 Avenue Monin			Villeurbanne		45.78782730,4.88312570
7 Avenue Roger Salengro			Villeurbanne		45.77495000,4.86912350
14 Rue François Mole			Villeurbanne		45.76938110,4.90055000
13 Rue Greuze			Villeurbanne		45.77328240,4.89397120
11 Rue Docteur Frappaz			Villeurbanne		45.76010950,4.89122790
7 Rue des Barottieres			Villeurbanne		45.77628050,4.89662250
10 Rue Anatole France			Villeurbanne		45.76661940,4.86937470
6 Rue de la Liberté			Villeurbanne		45.76477030,4.90181750
15 Rue Baudin			Villeurbanne		45.76525930,4.90565990
4 Rue Gérard Maire			Villeurbanne		45.77025270,4.88838870
16 Impasse des Moineaux			Villeurbanne		45.78232030,4.89774170
2 Rue Frédéric Fays			Villeurbanne		45.76473690,4.90266430
4 Rue Alfred Brinon			Villeurbanne		45.77627270,4.89315950
2 Rue Berthelot			Villeurbanne		45.75985940,4.89670490
1 Allée des Enfants			Villeurbanne		45.77038340,4.89643320
8 Impasse Édouard Aynard			Villeurbanne		45.76155430,4.87652820
20 Rue Pierre Voyant			Villeurbanne		45.77294300,4.89846690
16 Rue de l'Amitie			Villeurbanne		45.75531410,4.89000770
6 Rue Joseph Gillet			Villeurbanne		45.77319630,4.88698120
16 Impasse Henri			Villeurbanne		45.78251390,4.88839670
10 Avenue du Commandant l'Herminier			Villeurbanne		45.77003160,4.88462000
12 Rue du Luizet			Villeurbanne		45.78316060,4.88469550
1 Rue Pierre Bressat			Villeurbanne		45.75403970,4.90450080
4 Avenue Marcel Cerdan			Villeurbanne		45.76663440,4.90286740
13 Rue du Maréchal Foch			Villeurbanne		45.75346900,4.90519120
17 Rue de la Fraternite			Villeurbanne		45.75452530,4.88694360
15 Avenue Roberto Rossellini			Villeurbanne		45.77669120,4.86254020
15 Place Marengo			Villeurbanne		45.75945620,4.87543030
17 Place Jules Grandclement			Villeurbanne		45.75861390,4.88626430
12 Rue Magenta			Villeurbanne		45.76997200,4.87094540
18 Impasse Amblard			Villeurbanne		45.75436130,4.88782490
6 Rue Bonnet			Villeurbanne		45.77788680,4.86982270
14 Rue Lakanal			Villeurbanne		45.77439700,4.86640810
11 Rue Delornage			Villeurbanne		45.77030830,4.86788200
8 Rue des Acacias			Villeurbanne		45.78104260,4.90440850
2 Rue de Pierrefrite			Villeurbanne		45.76625660,4.91065670
15 Rue Bouchet			Villeurbanne		45.73874420,4.91671160
4 Rue Jean Zuber			Villeurbanne		45.77550700,4.89709340
2 Rue Decomberousse			Villeurbanne		45.76072750,4.92008090
5 Allée Henri Georges Clouzot			Villeurbanne		45.77599650,4.86131250
1 Avenue Monin			Villeurbanne		45.78782730,4.88312570
14 Impasse Bourgchanin			Villeurbanne		45.76445070,4.90281510
7 Avenue Roger Salengro			Villeurbanne		45.77495000,4.86912350
5 Avenue Antoine Dutrievoz			Villeurbanne		45.77169280,4.86207490
9 Rue François Gillet			Villeurbanne		45.75953760,4.87358390
14 Rue Lakanal			Villeurbanne		45.77439700,4.86640810
11 Rue Antoine Primat			Villeurbanne		45.75817020,4.89204250
19 Rue Rouget de Lisle			Villeurbanne		45.78845130,4.88455470
10 Rue de Venise			Villeurbanne		45.76677340,4.89872340
20 Cours Docteur Jean Damidot			Villeurbanne		45.76182210,4.88487620
8 Rue Baudelaire			Villeurbanne		45.76371000,4.87921420
1 Rue des Antonins			Villeurbanne		45.78243990,4.87870490
16 Rue Douaumont			Villeurbanne		45.78115740,4.89945710
10 Rue de la Ligne de l'Est			Villeurbanne		45.75729120,4.90356720
9 Rue du Capitaine Ferber			Villeurbanne		45.78859700,4.88389150
4 Avenue Roger Salengro			Villeurbanne		45.77423080,4.86854650
18 Rue Henri Rolland			Villeurbanne		45.77080160,4.86310080
16 Rue Louis Bocquet			Villeurbanne		45.75652320,4.90317300
16 Rue Pierre Voyant			Villeurbanne		45.77307850,4.89836960
16 Rue Frédéric Passy			Villeurbanne		45.76012300,4.87722380
6 Place des Maisons Neuves			Villeurbanne		45.75628810,4.87872550
20 Rue de Turin			Villeurbanne		45.77482920,4.89844660
3 Rue de l'Égalité			Villeurbanne		45.76422280,4.90433680
18 Avenue Roger Salengro			Villeurbanne		45.77484840,4.86950080
1 Boulevard du 11 Novembre 1918			Villeurbanne		45.77951040,4.85998260
1 Rue Marguerite			Villeurbanne		45.77822020,4.87048060
20 Rue de Mulhouse			Villeurbanne		45.77350230,4.89742090
6 Rue Louis Mille			Villeurbanne		45.76653160,4.88496000
11 Rue de l'Epi de Ble			Villeurbanne		45.77769160,4.90288900
8 Rue Prisca			Villeurbanne		45.78089500,4.88112870
18 Rue de la Doua			Villeurbanne		45.77805060,4.87409740
14 Rue Gabriel Peri			Villeurbanne		45.77219990,4.86583700
15 Rue Charles Gounod			Villeurbanne		45.77493510,4.88205100
13 Rue Jean Bertin			Villeurbanne		45.76032160,4.91962850
11 Rue de la Cloche			Villeurbanne		45.78830870,4.88553840
18 Avenue du Général Leclerc			Villeurbanne		45.75772550,4.89067400
13 Rue de la Prairie			Villeurbanne		45.78303180,4.89994950
18 Rue Marcel Doret			Villeurbanne		45.75453310,4.91218230
8 Rue Guillotte			Villeurbanne		45.75721310,4.89196090
10 Rue de la Sainte Famille			Villeurbanne		45.78073660,4.88767460
19 Rue Charlie Chaplin			Villeurbanne		45.77479010,4.86042490
18 Rue de la Marne			Villeurbanne		45.75282750,4.90585230
9 Rue Mansard			Villeurbanne		45.76903020,4.87284600
2 Rue Octavie			Villeurbanne		45.78169330,4.88745840
2 Rue Louis Becker			Villeurbanne		45.76515510,4.86912250
11 Impasse Richard			Villeurbanne		45.77512950,4.88562580
6 Rue Louis Maynard			Villeurbanne		45.78631200,4.89954660
13 Rue de la Prevoyance			Villeurbanne		45.77195920,4.88767870
9 Rue de Mulhouse			Villeurbanne		45.77361170,4.89581520
8 Rue Cyprian			Villeurbanne		45.75954730,4.90105010
20 Rue Georges Courteline			Villeurbanne		45.77819670,4.87757360
12 Rue Francis Chirat			Villeurbanne		45.75843680,4.88909920
18 Rue Valentin Hauy			Villeurbanne		45.75951370,4.88320630
9 Rue Jean Baptiste Durand			Villeurbanne		45.75465080,4.90426000
9 Rue Paul Pechoux			Villeurbanne		45.75509350,4.87701270
12 Rue de Pierrefrite			Villeurbanne		45.76625660,4.91065670
2 Rue de la Jeunesse			Villeurbanne		45.77406900,4.89724500
9 Rue Paul Cambon			Villeurbanne		45.77579700,4.87326340
7 Rue Baudin			Villeurbanne		45.76566560,4.90607900
18 Rue Mimi Pinson			Villeurbanne		45.78644630,4.90051740
13 Rue Christian de Wett			Villeurbanne		45.75357120,4.89704450
17 Rue Deauville			Villeurbanne		45.77264920,4.90004010
2 Impasse du Boucheret			Villeurbanne		45.76721040,4.89565750
13 Rue de l'Égalité			Villeurbanne		45.76422280,4.90433680
15 Rue Pierre Louis Bernaix			Villeurbanne		45.76023050,4.89696490
3 Rue Bonnet			Villeurbanne		45.77829500,4.87017420
15 Rue Baudin			Villeurbanne		45.76525930,4.90565990
17 Boulevard Eugene Reguillon			Villeurbanne		45.75977140,4.89090580
7 Avenue Monin			Villeurbanne		45.78782730,4.88312570
9 Rue Jules Guesde			Villeurbanne		45.75542990,4.90335130
18 Rue Francis de Pressense			Villeurbanne		45.77227460,4.86808520
15 Rue du Professeur Émile Bouvier			Villeurbanne		45.77904620,4.88966610
1 Rue François Gillet			Villeurbanne		45.75953610,4.87308690
11 Rue Général Dayan			Villeurbanne		45.77340590,4.86131940
5 Rue Poizat			Villeurbanne		45.75902120,4.89322800
8 Rue Mauvert			Villeurbanne		45.77441720,4.87753550
16 Impasse des Tilleuls			Villeurbanne		45.78037830,4.87983790
8 Rue Jean Zuber			Villeurbanne		45.77543870,4.89763160
16 Place des Allobroges			Villeurbanne		
14 Place des Allobroges			Villeurbanne		
11 Rue du Docteur Rollet			Villeurbanne		45.76806480,4.88441840
10 Rue Marcel Dutartre			Villeurbanne		45.77954380,4.87634140
4 Rue Marcel Dutartre			Villeurbanne		45.77960820,4.87589120
18 Avenue Roberto Rossellini			Villeurbanne		45.77668940,4.86240630
20 Rue de la Cloche			Villeurbanne		45.78835630,4.88553310
19 Place Albert Thomas			Villeurbanne		45.79187340,4.84053800
19 Rue Eugene Pottier			Villeurbanne		45.78627850,4.89789220
7 Cours Docteur Jean Damidot			Villeurbanne		45.76187620,4.88288690
11 Rue Bellecombe			Villeurbanne		45.76969420,4.86316100
4 Rue Charlie Chaplin			Villeurbanne		45.77418070,4.86065250
1 Avenue Condorcet			Villeurbanne		45.77841100,4.86686350
13 Place des Maisons Neuves			Villeurbanne		45.75611780,4.87695330
20 Impasse Baconnier			Villeurbanne		45.75137950,4.91089020
10 Impasse Million			Villeurbanne		45.76763970,4.89500220
2 Rue Greuze			Villeurbanne		45.77375740,4.89372810
3 Rue Viret			Villeurbanne		45.77439400,4.87565030
1 Rue Léon Blum			Villeurbanne		45.75955890,4.89130030
13 Rue Lancon			Villeurbanne		45.77115620,4.89237190
4 Rue Marguerite			Villeurbanne		45.77791450,4.86887860
2 Place Jules Grandclement			Villeurbanne		45.75937120,4.89091160
13 Rue René Prolongee			Villeurbanne		45.77882540,4.89455700
1 Avenue de Bel Air			Villeurbanne		45.75704590,4.91164700
3 Rue des Muriers			Villeurbanne		45.76255730,4.88099940
10 Impasse des Moineaux			Villeurbanne		45.78232030,4.89774170
13 Rue des Antonins			Villeurbanne		45.78144070,4.87873910
20 Rue Louis Mille			Villeurbanne		45.76652860,4.88487210
19 Impasse Chatigny			Villeurbanne		45.77535460,4.87494380
6 Cours Tolstoi			Villeurbanne		45.76355160,4.87055140
4 Rue Gérard Maire			Villeurbanne		45.77025270,4.88838870
17 Impasse Pellet			Villeurbanne		45.76454430,4.89578030
15 Avenue Marc Sangnier			Villeurbanne		45.76212280,4.87409520
18 Rue de Bel Air			Villeurbanne		45.75690150,4.91150480
9 Rue du Luxembourg			Villeurbanne		45.75001090,4.91463220
8 Rue Frédéric Fays			Villeurbanne		45.76446730,4.90306590
16 Rue Marcel Dutartre			Villeurbanne		45.77951270,4.87666740
19 Impasse des Tilleuls			Villeurbanne		45.77999830,4.88030670
7 Avenue Marcel Cerdan			Villeurbanne		45.76705520,4.90439440
14 Rue Rhonat			Villeurbanne		45.75555960,4.87797320
1 Rue de la Solidarite			Villeurbanne		45.75514610,4.88969760
13 Rue du Maréchal Foch			Villeurbanne		45.75346900,4.90519120
18 Rue de Milan			Villeurbanne		45.77360680,4.86958130
19 Rue Camille Koechlin			Villeurbanne		45.76379660,4.88723630
7 Rue Clos Poncet			Villeurbanne		45.76280920,4.87499200
12 Boulevard du 11 Novembre 1918			Villeurbanne		45.77921480,4.86102390
3 Rue Bonneterre			Villeurbanne		45.76092900,4.88582480
9 Rue Paul Pechoux			Villeurbanne		45.75509350,4.87701270
4 Avenue Marcel Cerdan			Villeurbanne		45.76663440,4.90286740
2 Rue Gustave Chamboeuf			Villeurbanne		45.76989450,4.89936050
13 Rue du Maréchal Foch			Villeurbanne		45.75346900,4.90519120
9 Allée des Enfants			Villeurbanne		45.77045930,4.89695710
16 Rue Geoffray			Villeurbanne		45.77399910,4.88234450
10 Rue des Lauriers			Villeurbanne		45.75384490,4.90295300
17 Rue Lancon			Villeurbanne		45.77115080,4.89270750
17 Avenue Condorcet			Villeurbanne		45.77715820,4.86745280
1 Rue Jean Baptiste Clement			Villeurbanne		45.78230940,4.87987730
18 Rue Bouchet			Villeurbanne		45.74432380,4.92298030
10 Rue Faillebin			Villeurbanne		45.76502050,4.89472920
10 Rue Branly			Villeurbanne		45.77084370,4.88148220
8 Rue Burais			Villeurbanne		45.75859170,4.89186950
18 Rue de la Cooperative			Villeurbanne		45.77082280,4.89799600
5 Rue Branly			Villeurbanne		45.77064500,4.88240000
20 Rue de la Solidarite			Villeurbanne		45.75449070,4.88899930
2 Rue Louis Malle			Villeurbanne		45.77322090,4.86030200
11 Rue de la Doua			Villeurbanne		45.77672080,4.87416020
5 Rue Léon Fabre			Villeurbanne		45.77902970,4.87336720
3 Rue du Canada			Villeurbanne		45.78218090,4.88044170
19 Place des Maisons Neuves			Villeurbanne		45.75622030,4.87739840
13 Rue Hector Berlioz			Villeurbanne		45.77246630,4.86872540
14 Rue Anatole France			Villeurbanne		45.76691640,4.86991080
3 Rue Victor Basch			Villeurbanne		45.76534390,4.89733040
1 Rue du Roulet			Villeurbanne		45.78729900,4.89667630
1 Rue de la Ligne de l'Est			Villeurbanne		45.75685690,4.90050110
7 Rue Colin			Villeurbanne		45.77534420,4.87409040
14 Rue Lazare Drut			Villeurbanne		45.77269910,4.88792380
8 Rue Léon Blum			Villeurbanne		45.75940570,4.89163190
4 Rue du Port			Villeurbanne		45.75572190,4.90274550
6 Rue de Bel Air			Villeurbanne		45.75780250,4.91042540
6 Allée des Cèdres			Villeurbanne		45.75636810,4.91059170
6 Boulevard Niels Bohr			Villeurbanne		45.78676870,4.87934260
17 Rue Pierre Louis Bernaix			Villeurbanne		45.76023050,4.89696490
20 Rue Jean Novel			Villeurbanne		45.77190930,4.86160670
9 Rue Paul Verlaine			Villeurbanne		45.76847530,4.88041920
15 Rue Raspail			Villeurbanne		45.77336550,4.88037370
4 Rue Joseph Gillet			Villeurbanne		45.77304130,4.88796720
3 Avenue Antoine de Saint Exupery			Villeurbanne		45.75951530,4.87652410
7 Impasse Richard			Villeurbanne		45.77545060,4.88555370
12 Rue du Vert Buisson			Villeurbanne		45.78376830,4.90240780
12 Rue de Milan			Villeurbanne		45.77360680,4.86958130
13 Rue du Canada			Villeurbanne		45.78243990,4.88150500
14 Rue George Sand			Villeurbanne		45.75474880,4.88580630
18 Rue Lancon			Villeurbanne		45.77105910,4.89337580
6 Rue Georges Courteline			Villeurbanne		45.77738050,4.87696250
2 Rue de Pierrefrite			Villeurbanne		45.76625660,4.91065670
9 Rue des Bons Amis			Villeurbanne		45.78611510,4.90249100
18 Allée Buster Keaton			Villeurbanne		45.77447470,4.86145090
12 Rue de la Poudrette			Villeurbanne		45.76365720,4.91936810
4 Avenue Ampère			Villeurbanne		45.76653870,4.91730370
16 Rue Marguerite			Villeurbanne		45.77791450,4.86887860
10 Rue Charles Montaland			Villeurbanne		45.76404790,4.88156270
14 Rue Baudin			Villeurbanne		45.76543200,4.90494050
12 Rue Docteur Frappaz			Villeurbanne		45.76110090,4.89357640
8 Rue du 8 Mai 1945			Villeurbanne		45.78190930,4.89216760
18 Rue Louis Guerin			Villeurbanne		45.77845710,4.86041140
3 Rue Jean Voillot			Villeurbanne		45.75510690,4.90987280
7 Rue Victor Hugo			Villeurbanne		45.75633390,4.88102560
13 Rue Marteret			Villeurbanne		45.77697490,4.87208900
6 Boulevard Eugene Reguillon			Villeurbanne		45.75980070,4.89154550
12 Rue Florian			Villeurbanne		45.76081110,4.88046970
12 Rue Abbe A Firmin			Villeurbanne		45.78401100,4.89862800
6 Rue de la Ligne de l'Est			Villeurbanne		45.75730160,4.90298790
13 Impasse Pellet			Villeurbanne		45.76454430,4.89578030
19 Rue de l'Avenir			Villeurbanne		45.75516860,4.90773500
14 Allée Marcel Achard			Villeurbanne		45.77480400,4.86097260
14 Rue Alfred de Musset			Villeurbanne		45.75731150,4.91661870
5 Impasse du Progres			Villeurbanne		45.76891750,4.89315970
15 Rue Severine			Villeurbanne		45.75521000,4.91296900
4 Rue Louis Becker			Villeurbanne		45.76515510,4.86912250
13 Rue Millon			Villeurbanne		45.76758530,4.86777940
14 Rue de la Somme			Villeurbanne		45.75242820,4.90671380
18 Rue Billon			Villeurbanne		45.77364770,4.87861250
7 Rue Baudin			Villeurbanne		45.76566560,4.90607900
13 Rue Malherbe			Villeurbanne		45.76733960,4.87868970
17 Rue Paul Gojon			Villeurbanne		45.77156530,4.89998980
17 Rue Henri Rolland			Villeurbanne		45.77080020,4.86310080
19 Rue Frédéric Mistral			Villeurbanne		45.75656400,4.87643780
9 Rue de la Famille			Villeurbanne		45.77391680,4.87988390
13 Rue du Docteur Ollier			Villeurbanne		45.76781900,4.88303580
1 Rue Jean Ottavi			Villeurbanne		45.77330190,4.87259450
15 Rue Yvonne Chanu			Villeurbanne		45.75378610,4.90841140
6 Rue Louis Jarnet			Villeurbanne		45.78160050,4.90502170
11 Rue Denis Papin			Villeurbanne		45.77013210,4.89173760
14 Avenue Salvador Allende			Villeurbanne		45.77644270,4.86270970
16 Impasse Henri			Villeurbanne		45.78251390,4.88839670
5 Rue Gabriel Peri			Villeurbanne		45.77060760,4.86333540
14 Impasse du Boucheret			Villeurbanne		45.76721040,4.89565750
14 Impasse Bourgchanin			Villeurbanne		45.76445070,4.90281510
7 Rue Max Barel			Villeurbanne		45.75722580,4.90102620
16 Rue Bergonier			Villeurbanne		45.76483050,4.89836570
10 Rue du Dr Pierre Fleury Papillon			Villeurbanne		45.76402750,4.88308970
11 Rue Jean Ottavi			Villeurbanne		45.77338760,4.87347430
2 Rue Monge			Villeurbanne		45.75309890,4.90899810
5 Allée Marcel Achard			Villeurbanne		45.77526140,4.86141360
4 Rue Lakanal			Villeurbanne		45.77533940,4.86596110
9 Rue Louis Adam			Villeurbanne		45.76859010,4.87203950
7 Rue Colin			Villeurbanne		45.77534420,4.87409040
4 Rue Lafontaine			Villeurbanne		45.76129090,4.87577860
20 Rue Lakanal			Villeurbanne		45.77439700,4.86640810
4 Avenue Aristide Briand			Villeurbanne		45.76678730,4.87980340
18 Allée du Couchant			Villeurbanne		45.75970400,4.87817420
15 Allée Louis Pergaud			Villeurbanne		45.75279400,4.91480400
18 Rue Abbe A Firmin			Villeurbanne		45.78401100,4.89862800
17 Rue Marcel Dutartre			Villeurbanne		45.77979490,4.87702380
11 Rue Charrin			Villeurbanne		45.75624150,4.88943650
2 Rue Deauville			Villeurbanne		45.77247040,4.89874190
9 Rue Frédéric Passy			Villeurbanne		45.76059840,4.87628520
3 Rue Poizat			Villeurbanne		45.75926290,4.89320060
10 Rue Alexis Perroncel			Villeurbanne		45.77465360,4.87074720
2 Rue de l'Epi de Ble			Villeurbanne		45.77831330,4.90237210
1 Avenue Antoine Dutrievoz			Villeurbanne		45.77247070,4.86245900
19 Allée du Levant			Villeurbanne		45.75970450,4.88021090
18 Rue de l'Union			Villeurbanne		45.76601710,4.89150500
16 Petite Rue de la Viabert			Villeurbanne		45.76752180,4.86523100
4 Rue François Mole			Villeurbanne		45.76918190,4.89994260
9 Place des Maisons Neuves			Villeurbanne		45.75602040,4.87674780
3 Boulevard Honore de Balzac			Villeurbanne		45.75455570,4.88475340
5 Rue de l'Epi de Ble			Villeurbanne		45.77808300,4.90278220
10 Rue des Roses			Villeurbanne		45.75514440,4.90653140
18 Rue du Marais			Villeurbanne		45.78435220,4.90083880
4 Rue Songieu			Villeurbanne		45.76952230,4.87487320
16 Rue Songieu			Villeurbanne		45.76849360,4.87490480
12 Rue Jean Ottavi			Villeurbanne		45.77309730,4.87349370
16 Rue George Sand			Villeurbanne		45.75488350,4.88648830
2 Rue Sully Prudhomme			Villeurbanne		45.76616900,4.87806380
19 Rue Robert Desnos			Villeurbanne		45.77554480,4.92810130
12 Rue Colin			Villeurbanne		45.77561000,4.87377580
4 Impasse Buyet			Villeurbanne		45.75604660,4.90351400
18 Place de la Paix			Villeurbanne		45.75212940,4.91515650
8 Rue des Peupliers			Villeurbanne		45.76046900,4.88807080
1 Impasse Guillet			Villeurbanne		45.78318470,4.88655430
6 Rue de Mulhouse			Villeurbanne		45.77324500,4.89605320
18 Rue Jean Baptiste Durand			Villeurbanne		45.75467900,4.90385780
8 Impasse du Progres			Villeurbanne		45.76879130,4.89268550
18 Rue Francis Chirat			Villeurbanne		45.75803860,4.88913130
12 Rue Georges Clemenceau			Villeurbanne		45.77724780,4.88368390
13 Rue du Tonkin			Villeurbanne		45.77900100,4.86518880
14 Rue Émile Decorps			Villeurbanne		45.75875950,4.89963310
8 Rue du Docteur Rollet			Villeurbanne		45.76817570,4.88425600
6 Rue Paul Lafargue			Villeurbanne		45.76838630,4.88342330
14 Rue Châteaubriand			Villeurbanne		45.78104890,4.88006680
7 Impasse Fontanieres			Villeurbanne		45.77386050,4.88283920
15 Impasse des Tilleuls			Villeurbanne		45.77997060,4.88021140
11 Rue des Bluets			Villeurbanne		45.78159830,4.89683380
1 Rue Flachet			Villeurbanne		45.77141770,4.89014440
19 Rue Jean Voillot			Villeurbanne		45.75524590,4.91045980
2 Rue de la Serenite			Villeurbanne		45.76966410,4.89667290
19 Rue de la Liberté			Villeurbanne		45.76498450,4.90265090
2 Rue Gérard Maire			Villeurbanne		45.77043720,4.88843530
20 Rue Branly			Villeurbanne		45.77003300,4.88134360
18 Rue Flachet			Villeurbanne		45.77058000,4.88987010
10 Rue Abbe A Firmin			Villeurbanne		45.78400060,4.89850010
4 Rue du Professeur Calmette			Villeurbanne		45.77262650,4.89653060
4 Impasse Lafontaine			Villeurbanne		45.76053490,4.87807200
18 Rue de la Convention			Villeurbanne		45.76359500,4.87268080
3 Place des Maisons Neuves			Villeurbanne		45.75653910,4.87844020
3 Rue Victor Subit			Villeurbanne		45.76615180,4.89585270
5 Rue Victor Jara			Villeurbanne		45.76586320,4.91868100
13 Rue Jean Voillot			Villeurbanne		45.75519140,4.91023530
16 Rue du Souvenir Français			Villeurbanne		45.76222940,4.90910160
10 Rue Marteret			Villeurbanne		45.77697390,4.87192970
20 Rue Jacques Brel			Villeurbanne		45.77397470,4.86456880
6 Rue Pierre Loti			Villeurbanne		45.76907090,4.88708080
13 Avenue de Bel Air			Villeurbanne		45.75642140,4.91235420
8 Cours Docteur Jean Damidot			Villeurbanne		45.76169510,4.88313700
11 Boulevard Honore de Balzac			Villeurbanne		45.75530050,4.88692500
5 Rue Schmidt			Villeurbanne		45.77770330,4.87410680
6 Rue des Charmettes			Villeurbanne		45.77177170,4.86633610
2 Rue Chambfort			Villeurbanne		45.76700280,4.90056430
19 Rue Persoz			Villeurbanne		45.76181400,4.88745730
6 Rue Clos Poncet			Villeurbanne		45.76269790,4.87486540
1 Rue Léon Blum			Villeurbanne		45.75955890,4.89130030
9 Rue Geoffray			Villeurbanne		45.77415270,4.88144200
8 Rue Louis Fort			Villeurbanne		45.77449240,4.88522740
18 Impasse Richard			Villeurbanne		45.77524310,4.88515100
11 Impasse Bourgchanin			Villeurbanne		45.76720120,4.90247520
11 Rue Baudin			Villeurbanne		45.76544610,4.90603810
16 Allée des Enfants			Villeurbanne		45.77045750,4.89768770
2 Impasse des Soeurs			Villeurbanne		45.77985630,4.88960280
15 Rue Andree Brevet			Villeurbanne		45.75662830,4.88907330
10 Rue Alexandre Dumas			Villeurbanne		45.77633200,4.88909530
5 Rue Rouget de Lisle			Villeurbanne		45.78903240,4.88461800
12 Rue Léon Fabre			Villeurbanne		45.77858060,4.87396050
18 Rue de la Bastille			Villeurbanne		45.76984160,4.87173640
9 Rue d'Alsace			Villeurbanne		45.77036510,4.86998230
11 Rue Gervais Bussiere			Villeurbanne		45.77455320,4.87081980
4 Avenue Henri Barbusse			Villeurbanne		45.76929140,4.87909220
11 Cours Docteur Jean Damidot			Villeurbanne		45.76182490,4.88314440
8 Rue Tranquille			Villeurbanne		45.78459380,4.89779200
2 Rue des Barottieres			Villeurbanne		45.77624770,4.89592320
20 Rue du Luxembourg			Villeurbanne		45.74993100,4.91441780
16 Rue Bat Yam			Villeurbanne		45.77318530,4.86429110
3 Rue Jean Pierre Bredy			Villeurbanne		45.78176670,4.88620350
10 Rue Songieu			Villeurbanne		45.76887850,4.87495120
6 Rue d'Hanoi			Villeurbanne		45.77139420,4.86305320
18 Avenue Galline			Villeurbanne		45.77619520,4.86680540
15 Rue Dedieu			Villeurbanne		45.76950250,4.86421570
6 Rue du Foyer			Villeurbanne		45.77449100,4.87952670
3 Rue Millon			Villeurbanne		45.76750920,4.86653910
8 Rue de la Baisse			Villeurbanne		45.76420960,4.89257690
1 Rue Melzet			Villeurbanne		45.77325860,4.86882090
11 Rue Raspail			Villeurbanne		45.77333020,4.88007440
13 Rue Victor Subit			Villeurbanne		45.76562980,4.89579170
20 Rue Jean Novel			Villeurbanne		45.77190930,4.86160670
3 Rue du Luxembourg			Villeurbanne		45.75055610,4.91475380
13 Rue Billon			Villeurbanne		45.77391950,4.87909770
17 Avenue de la Rize			Villeurbanne		45.76931280,4.90999090
6 Rue du Docteur Rollet			Villeurbanne		45.76826070,4.88416710
7 Impasse Martin			Villeurbanne		45.76275390,4.89455010
1 Rue Saint Jean			Villeurbanne		45.77696360,4.89973950
19 Impasse Bourgchanin			Villeurbanne		45.76737970,4.90272980
16 Rue Prisca			Villeurbanne		45.78089500,4.88112870
1 Rue Jean Baptiste Durand			Villeurbanne		45.75530920,4.90401510
3 Avenue Galline			Villeurbanne		45.77670470,4.86543890
5 Petite Rue de la Rize			Villeurbanne		45.75990010,4.88559820
8 Rue Eugene Pottier			Villeurbanne		45.78470690,4.89563590
12 Rue Robert Desnos			Villeurbanne		45.77249010,4.88068490
14 Boulevard de Villeurbanne			Villeurbanne		45.76017950,4.89241870
4 Impasse Chevreul			Villeurbanne		45.76390360,4.89971960
9 Rue de Milan			Villeurbanne		45.77387620,4.86923890
9 Rue Decomberousse			Villeurbanne		45.76238930,4.91483830
17 Place Marengo			Villeurbanne		45.75945620,4.87543030
17 Boulevard du 11 Novembre 1918			Villeurbanne		45.77946460,4.86205050
20 Allée du Caporal Maupas			Villeurbanne		45.75344700,4.91467100
5 Rue de la Liberté			Villeurbanne		45.76501380,4.90176740
18 Rue Gervais Bussiere			Villeurbanne		45.77428390,4.86971620
14 Rue Clos Mon Desir			Villeurbanne		45.77835330,4.90569220
16 Place Charles Hernu			Villeurbanne		45.77053200,4.86322960
20 Rue Bernard Lecache			Villeurbanne		45.76450800,4.91129600
5 Rue des Pres			Villeurbanne		45.76383710,4.88117890
17 Rue des Fleurs			Villeurbanne		45.75399680,4.89547690
16 Rue Antoine Primat			Villeurbanne		45.75814290,4.89349510
1 Rue Georges Melies			Villeurbanne		45.77665780,4.86100040
9 Rue Michel Dupeuble			Villeurbanne		45.77625250,4.89169380
4 Rue Docteur Frappaz			Villeurbanne		45.76067970,4.89305730
11 Rue Bat Yam			Villeurbanne		45.77294530,4.86466260
10 Rue Michel Servet			Villeurbanne		45.76882820,4.87882290
19 Rue Max Linder			Villeurbanne		
17 Avenue du Commandant l'Herminier			Villeurbanne		45.77025790,4.88496590
15 Rue de la Famille			Villeurbanne		45.77402840,4.88025320
15 Rue Louis Bocquet			Villeurbanne		45.75666680,4.90300170
5 Rue Geoffray			Villeurbanne		45.77410470,4.88121180
1 Rue Chambfort			Villeurbanne		45.76708570,4.90087870
20 Rue Michel Dupeuble			Villeurbanne		45.77519900,4.89025360
4 Rue Monge			Villeurbanne		45.75299850,4.90887120
2 Rue de Bel Air			Villeurbanne		45.75813570,4.91027350
1 Place Jules Grandclement			Villeurbanne		45.75982830,4.89009460
7 Impasse Metral			Villeurbanne		45.77242880,4.87096300
10 Avenue Antoine de Saint Exupery			Villeurbanne		45.75927840,4.87654210
16 Rue du Pont des Planches			Villeurbanne		45.77027130,4.90768590
9 Rue Montgolfier			Villeurbanne		45.77457240,4.89045150
15 Rue Etienne Gagnaire			Villeurbanne		45.76673060,4.91004920
18 Rue des Roses			Villeurbanne		45.75454220,4.90658480
8 Rue du Caporal Morange			Villeurbanne		45.75175400,4.91669540
12 Rue des Muriers			Villeurbanne		45.76250220,4.88178000
7 Cours de la République			Villeurbanne		45.77101610,4.87395840
7 Rue des Acacias			Villeurbanne		45.78186770,4.90422430
7 Rue Frédéric Passy			Villeurbanne		45.76059840,4.87628520
4 Rue du Nord			Villeurbanne		45.76364830,4.88092230
9 Rue Poizat			Villeurbanne		45.75880860,4.89327690
16 Rue Colonel Klobb			Villeurbanne		45.77487200,4.88222100
8 Rue de l'Amitie			Villeurbanne		45.75531410,4.89000770
9 Rue Damon			Villeurbanne		45.76624990,4.87124480
19 Rue Antoine Bernoux			Villeurbanne		45.76975200,4.88753040
14 Rue Colonel Klobb			Villeurbanne		45.77473870,4.88198250
2 Rue Faillebin			Villeurbanne		45.76502050,4.89472920
17 Place Jean Chorel			Villeurbanne		45.77399380,4.86511720
8 Rue Jean Pierre Bredy			Villeurbanne		45.78257540,4.88630320
19 Rue Etienne Gagnaire			Villeurbanne		45.77304670,4.86555030
14 Rue Jean Voillot			Villeurbanne		45.75520260,4.91029000
11 Avenue Henri Barbusse			Villeurbanne		45.76876330,4.87978390
16 Rue Antoine Primat			Villeurbanne		45.75814290,4.89349510
20 Rue Baudelaire			Villeurbanne		45.76268070,4.87934300
1 Rue Combet			Villeurbanne		45.75448290,4.90673210
18 Petite Rue de la Rize			Villeurbanne		45.76005000,4.88593980
19 Place Albert Thomas			Villeurbanne		45.79187340,4.84053800
12 Rue Baudelaire			Villeurbanne		45.76334850,4.87917370
7 Rue de la Soie			Villeurbanne		45.76273840,4.91604070
5 Rue du Luxembourg			Villeurbanne		45.74957320,4.91442640
2 Rue Jean Baptiste Durand			Villeurbanne		45.75526660,4.90384500
17 Rue Douaumont			Villeurbanne		45.78248320,4.89899610
10 Rue Racine			Villeurbanne		45.76812490,4.87786920
16 Rue René Prolongee			Villeurbanne		45.77850580,4.89348610
20 Impasse Amblard			Villeurbanne		45.75436130,4.88782490
2 Rue de la Cooperative			Villeurbanne		45.77075180,4.89649090
6 Rue Charrin			Villeurbanne		45.75613800,4.88861470
9 Rue Phelypeaux			Villeurbanne		45.77745040,4.86394470
9 Rue Michel Dupeuble			Villeurbanne		45.77625250,4.89169380
15 Rue de la Prairie			Villeurbanne		45.78303180,4.89994950
17 Rue Antoine Bernoux			Villeurbanne		45.76975200,4.88753040
17 Rue du 4 Septembre 1797			Villeurbanne		45.76137400,4.87176640
9 Rue Basile			Villeurbanne		45.77922100,4.88259900
17 Place de Croix Luizet			Villeurbanne		45.78059220,4.88294360
12 Rue Marguerite			Villeurbanne		45.77791450,4.86887860
13 Impasse Frédéric Fays			Villeurbanne		45.76389040,4.90454190
3 Place Jean Chorel			Villeurbanne		45.77399380,4.86511720
7 Rue Bat Yam			Villeurbanne		45.77342640,4.86470000
9 Rue du Boucheret			Villeurbanne		45.76725030,4.89580560
5 Impasse du Reve			Villeurbanne		45.78336190,4.90389650
8 Rue du Tonkin			Villeurbanne		45.77823440,4.86481540
12 Rue de Delle			Villeurbanne		45.75951400,4.90388560
1 Rue Jubin			Villeurbanne		45.77121280,4.86705400
16 Impasse Richelieu			Villeurbanne		45.76117210,4.87775660
6 Rue Octavie			Villeurbanne		45.78144550,4.88748790
20 Rue Alexandre Dumas			Villeurbanne		45.77642720,4.88995210
20 Rue Monge			Villeurbanne		45.75215030,4.90917020
18 Allée du Couchant			Villeurbanne		45.75970400,4.87817420
8 Impasse Frédéric Fays			Villeurbanne		45.76446730,4.90306590
17 Rue d'Inkermann			Villeurbanne		45.76905400,4.86591100
17 Rue du Foyer			Villeurbanne		45.77474780,4.88002420
19 Rue Wilhelmine			Villeurbanne		45.78170970,4.88116120
10 Impasse des Lilas			Villeurbanne		45.76902690,4.89072740
20 Rue Pierre Loti			Villeurbanne		45.76843570,4.88694180
5 Rue Hector Berlioz			Villeurbanne		45.77279780,4.86920640
6 Rue Michel Dupeuble			Villeurbanne		45.77500160,4.88907730
12 Rue Flachet			Villeurbanne		45.77099070,4.88991400
13 Rue George Sand			Villeurbanne		45.75490330,4.88621650
17 Rue Pelisson			Villeurbanne		45.77379190,4.88630490
1 Impasse Richelieu			Villeurbanne		45.76041270,4.87757120
6 Impasse du Reve			Villeurbanne		45.78287820,4.90383860
7 Rue Florian			Villeurbanne		45.76143920,4.88079470
16 Rue Son Tay			Villeurbanne		45.77312690,4.86446370
1 Rue Berthelot			Villeurbanne		45.75975560,4.89696140
18 Impasse Alexandre Dumas			Villeurbanne		45.77647440,4.88971500
11 Rue Viret			Villeurbanne		45.77388980,4.87560020
9 Rue Aynes			Villeurbanne		45.75564040,4.88908930
5 Rue Benjamin Constant			Villeurbanne		45.77380750,4.88210100
9 Rue Prisca			Villeurbanne		45.78089940,4.88177920
12 Rue Jean Baptiste Clement			Villeurbanne		45.78214830,4.87962080
6 Rue des Acacias			Villeurbanne		45.78089320,4.90478860
4 Impasse Baconnier			Villeurbanne		45.75254470,4.91072460
15 Impasse du Boucheret			Villeurbanne		45.76725310,4.89592210
13 Rue Jacques Brel			Villeurbanne		45.77396450,4.86480560
3 Rue de Verdun			Villeurbanne		45.78339770,4.89743130
6 Rue Louis Bocquet			Villeurbanne		45.75627040,4.90265560
7 Rue Daniel Llacer			Villeurbanne		45.77849980,4.88788470
15 Place du Commandant Rivière			Villeurbanne		45.77635960,4.86185360
3 Rue Charles Gounod			Villeurbanne		45.77533960,4.88183020
1 Rue des Muriers			Villeurbanne		45.76254740,4.88069350
6 Avenue Antoine de Saint Exupery			Villeurbanne		45.75928960,4.87651490
4 Allée du Caporal Maupas			Villeurbanne		45.75334010,4.91415910
9 Rue Sully Prudhomme			Villeurbanne		45.76627650,4.87875010
17 Rue des Bons Amis			Villeurbanne		45.78514090,4.90260860
15 Avenue Piaton			Villeurbanne		45.77426620,4.86736690
7 Rue du Canada			Villeurbanne		45.78231470,4.88074050
4 Rue Clos Mon Desir			Villeurbanne		45.77829810,4.90465470
8 Rue du Docteur Rollet			Villeurbanne		45.76817570,4.88425600
1 Impasse Richelieu			Villeurbanne		45.76041270,4.87757120
7 Impasse des Bienvenus			Villeurbanne		45.77750040,4.88419640
8 Rue Francis Chirat			Villeurbanne		45.75865950,4.88890880
5 Avenue Piaton			Villeurbanne		45.77442640,4.86586290
17 Rue Racine			Villeurbanne		45.76826930,4.87795120
18 Cours Émile Zola			Villeurbanne		45.77049030,4.86412540
15 Rue Faillebin			Villeurbanne		45.76398710,4.89510950
20 Rue de la Ligne de l'Est			Villeurbanne		45.75791260,4.90734550
17 Rue Pelisson			Villeurbanne		45.77379190,4.88630490
16 Rue du Docteur Ollier			Villeurbanne		45.76779340,4.88235620
12 Rue Billon			Villeurbanne		45.77398670,4.87881220
16 Rue Pascal			Villeurbanne		45.76038970,4.87465150
1 Rue Jean Zuber			Villeurbanne		45.77570340,4.89663710
